{
  "type": "FeatureCollection",
  "features": [
    {
      "type": "Feature",
      "properties": {
        "norad_id": 65729,
        "name": "DRAGONFLY",
        "group": "stations",
        "lat": 33.05265455581222,
        "lon": -145.77451409515913,
        "alt_km": 363.9581728614985,
        "timestamp": "2025-12-03T10:52:56.239975+00:00",
        "meta_object_name": "DRAGONFLY",
        "meta_object_id": "1998-067XH",
        "meta_epoch": "2025-12-02T23:59:20.731200",
        "meta_mean_motion": 15.68122428,
        "meta_eccentricity": 0.0006566,
        "meta_inclination": 51.6251,
        "meta_ra_of_asc_node": 185.4963,
        "meta_arg_of_pericenter": 216.9941,
        "meta_mean_anomaly": 143.0603,
        "meta_ephemeris_type": 0,
        "meta_classification_type": "U",
        "meta_norad_cat_id": 65729,
        "meta_element_set_no": 999,
        "meta_rev_at_epoch": 1163,
        "meta_bstar": 0.0013752,
        "meta_mean_motion_dot": 0.00158902,
        "meta_mean_motion_ddot": 0,
        "tle_line1": "1 65729U 98067XH  25336.99954550  .00158902  00000+0  13752-2 0  9998",
        "tle_line2": "2 65729  51.6251 185.4963 0006566 216.9941 143.0603 15.68122428 11639"
      },
      "geometry": {
        "type": "Point",
        "coordinates": [
          -145.77451409515913,
          33.05265455581222
        ]
      }
    },
    {
      "type": "Feature",
      "properties": {
        "norad_id": 65730,
        "name": "1998-067XJ",
        "group": "stations",
        "lat": 51.44527438588196,
        "lon": -87.31429463610921,
        "alt_km": 184.0225535760219,
        "timestamp": "2025-12-03T10:52:56.239986+00:00",
        "meta_object_name": "1998-067XJ",
        "meta_object_id": "1998-067XJ",
        "meta_epoch": "2025-12-02T19:46:01.269120",
        "meta_mean_motion": 16.23931094,
        "meta_eccentricity": 0.0010115,
        "meta_inclination": 51.6061,
        "meta_ra_of_asc_node": 180.4655,
        "meta_arg_of_pericenter": 256.3912,
        "meta_mean_anomaly": 103.5981,
        "meta_ephemeris_type": 0,
        "meta_classification_type": "U",
        "meta_norad_cat_id": 65730,
        "meta_element_set_no": 999,
        "meta_rev_at_epoch": 1168,
        "meta_bstar": 0.0022859,
        "meta_mean_motion_dot": 0.06330363,
        "meta_mean_motion_ddot": 1.1931e-05,
        "tle_line1": "1 65730U 98067XJ  25336.82362580  .06330363  11931-4  22859-2 0  9995",
        "tle_line2": "2 65730  51.6061 180.4655 0010115 256.3912 103.5981 16.23931094 11688"
      },
      "geometry": {
        "type": "Point",
        "coordinates": [
          -87.31429463610921,
          51.44527438588196
        ]
      }
    },
    {
      "type": "Feature",
      "properties": {
        "norad_id": 65731,
        "name": "1998-067XK",
        "group": "stations",
        "lat": -47.55396537780496,
        "lon": 64.30196057727336,
        "alt_km": 380.0409579585348,
        "timestamp": "2025-12-03T10:52:56.239996+00:00",
        "meta_object_name": "1998-067XK",
        "meta_object_id": "1998-067XK",
        "meta_epoch": "2025-12-02T20:00:36.101088",
        "meta_mean_motion": 15.63382318,
        "meta_eccentricity": 0.0005863,
        "meta_inclination": 51.6285,
        "meta_ra_of_asc_node": 187.4006,
        "meta_arg_of_pericenter": 188.3266,
        "meta_mean_anomaly": 171.7632,
        "meta_ephemeris_type": 0,
        "meta_classification_type": "U",
        "meta_norad_cat_id": 65731,
        "meta_element_set_no": 999,
        "meta_rev_at_epoch": 1159,
        "meta_bstar": 0.00098553,
        "meta_mean_motion_dot": 0.00093205,
        "meta_mean_motion_ddot": 0,
        "tle_line1": "1 65731U 98067XK  25336.83375117  .00093205  00000+0  98553-3 0  9997",
        "tle_line2": "2 65731  51.6285 187.4006 0005863 188.3266 171.7632 15.63382318 11596"
      },
      "geometry": {
        "type": "Point",
        "coordinates": [
          64.30196057727336,
          -47.55396537780496
        ]
      }
    },
    {
      "type": "Feature",
      "properties": {
        "norad_id": 65732,
        "name": "RSP-03",
        "group": "stations",
        "lat": 32.11001194677157,
        "lon": -26.075070407696007,
        "alt_km": 364.4321811341597,
        "timestamp": "2025-12-03T10:52:56.240007+00:00",
        "meta_object_name": "RSP-03",
        "meta_object_id": "1998-067XL",
        "meta_epoch": "2025-12-02T23:34:31.952064",
        "meta_mean_motion": 15.65632487,
        "meta_eccentricity": 0.0006831,
        "meta_inclination": 51.6271,
        "meta_ra_of_asc_node": 186.1351,
        "meta_arg_of_pericenter": 192.2719,
        "meta_mean_anomaly": 167.8111,
        "meta_ephemeris_type": 0,
        "meta_classification_type": "U",
        "meta_norad_cat_id": 65732,
        "meta_element_set_no": 999,
        "meta_rev_at_epoch": 1163,
        "meta_bstar": 0.0011971,
        "meta_mean_motion_dot": 0.00124452,
        "meta_mean_motion_ddot": 0,
        "tle_line1": "1 65732U 98067XL  25336.98231426  .00124452  00000+0  11971-2 0  9995",
        "tle_line2": "2 65732  51.6271 186.1351 0006831 192.2719 167.8111 15.65632487 11634"
      },
      "geometry": {
        "type": "Point",
        "coordinates": [
          -26.075070407696007,
          32.11001194677157
        ]
      }
    },
    {
      "type": "Feature",
      "properties": {
        "norad_id": 65733,
        "name": "GHS-01",
        "group": "stations",
        "lat": -40.692989511662056,
        "lon": 45.74070883026821,
        "alt_km": 357.89016143540266,
        "timestamp": "2025-12-03T10:52:56.240017+00:00",
        "meta_object_name": "GHS-01",
        "meta_object_id": "1998-067XM",
        "meta_epoch": "2025-12-02T20:07:58.918368",
        "meta_mean_motion": 15.70056093,
        "meta_eccentricity": 0.0006994,
        "meta_inclination": 51.628,
        "meta_ra_of_asc_node": 185.9293,
        "meta_arg_of_pericenter": 215.3541,
        "meta_mean_anomaly": 144.6993,
        "meta_ephemeris_type": 0,
        "meta_classification_type": "U",
        "meta_norad_cat_id": 65733,
        "meta_element_set_no": 999,
        "meta_rev_at_epoch": 1162,
        "meta_bstar": 0.0014391,
        "meta_mean_motion_dot": 0.00180652,
        "meta_mean_motion_ddot": 0,
        "tle_line1": "1 65733U 98067XM  25336.83887637  .00180652  00000+0  14391-2 0  9994",
        "tle_line2": "2 65733  51.6280 185.9293 0006994 215.3541 144.6993 15.70056093 11626"
      },
      "geometry": {
        "type": "Point",
        "coordinates": [
          45.74070883026821,
          -40.692989511662056
        ]
      }
    },
    {
      "type": "Feature",
      "properties": {
        "norad_id": 65941,
        "name": "YOTSUBA-KULOVER",
        "group": "stations",
        "lat": -23.856380071604395,
        "lon": 27.10619720340931,
        "alt_km": 396.1485211252766,
        "timestamp": "2025-12-03T10:52:56.240027+00:00",
        "meta_object_name": "YOTSUBA-KULOVER",
        "meta_object_id": "1998-067XN",
        "meta_epoch": "2025-12-02T15:30:17.265024",
        "meta_mean_motion": 15.57709356,
        "meta_eccentricity": 0.00021398,
        "meta_inclination": 51.6284,
        "meta_ra_of_asc_node": 190.644,
        "meta_arg_of_pericenter": 164.2097,
        "meta_mean_anomaly": 195.8962,
        "meta_ephemeris_type": 0,
        "meta_classification_type": "U",
        "meta_norad_cat_id": 65941,
        "meta_element_set_no": 999,
        "meta_rev_at_epoch": 828,
        "meta_bstar": 0.00091621888,
        "meta_mean_motion_dot": 0.00069349,
        "meta_mean_motion_ddot": 0,
        "tle_line1": "1 65941U 98067XN  25336.64603316  .00069349  00000+0  91622-3 0  9996",
        "tle_line2": "2 65941  51.6284 190.6440 0002139 164.2097 195.8962 15.57709356  8287"
      },
      "geometry": {
        "type": "Point",
        "coordinates": [
          27.10619720340931,
          -23.856380071604395
        ]
      }
    },
    {
      "type": "Feature",
      "properties": {
        "norad_id": 65942,
        "name": "BOTAN",
        "group": "stations",
        "lat": 50.28571164951518,
        "lon": -101.34907243667803,
        "alt_km": 379.7231295011552,
        "timestamp": "2025-12-03T10:52:56.240038+00:00",
        "meta_object_name": "BOTAN",
        "meta_object_id": "1998-067XP",
        "meta_epoch": "2025-12-01T23:11:25.783296",
        "meta_mean_motion": 15.60127991,
        "meta_eccentricity": 0.00045427,
        "meta_inclination": 51.629,
        "meta_ra_of_asc_node": 193.6047,
        "meta_arg_of_pericenter": 166.4057,
        "meta_mean_anomaly": 193.706,
        "meta_ephemeris_type": 0,
        "meta_classification_type": "U",
        "meta_norad_cat_id": 65942,
        "meta_element_set_no": 999,
        "meta_rev_at_epoch": 818,
        "meta_bstar": 0.0011466978,
        "meta_mean_motion_dot": 0.00095633,
        "meta_mean_motion_ddot": 0,
        "tle_line1": "1 65942U 98067XP  25335.96627064  .00095633  00000+0  11467-2 0  9990",
        "tle_line2": "2 65942  51.6290 193.6047 0004542 166.4057 193.7060 15.60127991  8189"
      },
      "geometry": {
        "type": "Point",
        "coordinates": [
          -101.34907243667803,
          50.28571164951518
        ]
      }
    }
  ]
}